[
    {
        "Altitude(m)": 624790.7922498544,
        "Argument of Periapsis(deg)": 0.0,
        "Eccentricity": 0.0,
        "Inclination(deg)": 60.0,
        "Latitude(deg)": -59.14710706548563,
        "Longitude(deg)": 26.034784690836194,
        "Mean Anomaly(deg)": -81.81820000000003,
        "RAAN(deg)": 200.0,
        "Satellite Name": "Test1 897",
        "Satellite Number": 897,
        "Semi-Major Axis(m)": 6980739.136638005,
        "Time(s)": 0
    },
    {
        "Altitude(m)": 624737.4466195656,
        "Argument of Periapsis(deg)": 0.00010418945913296404,
        "Eccentricity": 0.0,
        "Inclination(deg)": 60.0,
        "Latitude(deg)": -58.9945601180053,
        "Longitude(deg)": 27.154285340060106,
        "Mean Anomaly(deg)": -81.19809385453819,
        "RAAN(deg)": 199.99957995086027,
        "Satellite Name": "Test1 897",
        "Satellite Number": 897,
        "Semi-Major Axis(m)": 6980739.136638005,
        "Time(s)": 10
    }
]